{
  "type": "FeatureCollection",
  "features": [
    {
      "type": "Feature",
      "properties": {
        "norad_id": 66560,
        "name": "STARLINK-35411",
        "group": "last-30-days",
        "lat": 42.89880018497725,
        "lon": 159.8104248512299,
        "alt_km": 392.8374026602114,
        "timestamp": "2025-12-20T18:51:30.444580+00:00",
        "meta_object_name": "STARLINK-35411",
        "meta_object_id": "2025-268D",
        "meta_epoch": "2025-12-20T14:00:03.000384",
        "meta_mean_motion": 15.56223198,
        "meta_eccentricity": 0.00019168,
        "meta_inclination": 42.9994,
        "meta_ra_of_asc_node": 75.2917,
        "meta_arg_of_pericenter": 273.8759,
        "meta_mean_anomaly": 117.6605,
        "meta_ephemeris_type": 0,
        "meta_classification_type": "U",
        "meta_norad_cat_id": 66560,
        "meta_element_set_no": 999,
        "meta_rev_at_epoch": 592,
        "meta_bstar": 0.0026445119,
        "meta_mean_motion_dot": 0.00194885,
        "meta_mean_motion_ddot": 0,
        "tle_line1": "1 66560U 25268D   25354.58336806  .00194885  00000+0  26445-2 0  9991",
        "tle_line2": "2 66560  42.9994  75.2917 0001916 273.8759 117.6605 15.56223198  5925"
      },
      "geometry": {
        "type": "Point",
        "coordinates": [
          159.8104248512299,
          42.89880018497725
        ]
      }
    },
    {
      "type": "Feature",
      "properties": {
        "norad_id": 66561,
        "name": "STARLINK-35305",
        "group": "last-30-days",
        "lat": 42.97697269022966,
        "lon": 165.04304547846846,
        "alt_km": 392.8865802579139,
        "timestamp": "2025-12-20T18:51:30.444591+00:00",
        "meta_object_name": "STARLINK-35305",
        "meta_object_id": "2025-268E",
        "meta_epoch": "2025-12-20T14:00:03.000384",
        "meta_mean_motion": 15.56235714,
        "meta_eccentricity": 0.00020172,
        "meta_inclination": 43.0015,
        "meta_ra_of_asc_node": 75.2808,
        "meta_arg_of_pericenter": 270.7246,
        "meta_mean_anomaly": 124.6409,
        "meta_ephemeris_type": 0,
        "meta_classification_type": "U",
        "meta_norad_cat_id": 66561,
        "meta_element_set_no": 999,
        "meta_rev_at_epoch": 588,
        "meta_bstar": 0.0024620813,
        "meta_mean_motion_dot": 0.00181185,
        "meta_mean_motion_ddot": 0,
        "tle_line1": "1 66561U 25268E   25354.58336806  .00181185  00000+0  24621-2 0  9995",
        "tle_line2": "2 66561  43.0015  75.2808 0002017 270.7246 124.6409 15.56235714  5883"
      },
      "geometry": {
        "type": "Point",
        "coordinates": [
          165.04304547846846,
          42.97697269022966
        ]
      }
    },
    {
      "type": "Feature",
      "properties": {
        "norad_id": 66562,
        "name": "STARLINK-35579",
        "group": "last-30-days",
        "lat": 42.96864415492338,
        "lon": 162.4225688957278,
        "alt_km": 392.7572542492944,
        "timestamp": "2025-12-20T18:51:30.444601+00:00",
        "meta_object_name": "STARLINK-35579",
        "meta_object_id": "2025-268F",
        "meta_epoch": "2025-12-20T14:00:03.000384",
        "meta_mean_motion": 15.5623075,
        "meta_eccentricity": 0.00018123,
        "meta_inclination": 43.0013,
        "meta_ra_of_asc_node": 75.2849,
        "meta_arg_of_pericenter": 268.7048,
        "meta_mean_anomaly": 124.746,
        "meta_ephemeris_type": 0,
        "meta_classification_type": "U",
        "meta_norad_cat_id": 66562,
        "meta_element_set_no": 999,
        "meta_rev_at_epoch": 592,
        "meta_bstar": 0.002536944,
        "meta_mean_motion_dot": 0.00186802,
        "meta_mean_motion_ddot": 0,
        "tle_line1": "1 66562U 25268F   25354.58336806  .00186802  00000+0  25369-2 0  9997",
        "tle_line2": "2 66562  43.0013  75.2849 0001812 268.7048 124.7460 15.56230750  5924"
      },
      "geometry": {
        "type": "Point",
        "coordinates": [
          162.4225688957278,
          42.96864415492338
        ]
      }
    },
    {
      "type": "Feature",
      "properties": {
        "norad_id": 66563,
        "name": "STARLINK-35437",
        "group": "last-30-days",
        "lat": 42.9253265113131,
        "lon": 167.66392636465005,
        "alt_km": 392.8167126834078,
        "timestamp": "2025-12-20T18:51:30.444614+00:00",
        "meta_object_name": "STARLINK-35437",
        "meta_object_id": "2025-268G",
        "meta_epoch": "2025-12-20T14:00:03.000384",
        "meta_mean_motion": 15.5622801,
        "meta_eccentricity": 0.00018843,
        "meta_inclination": 43.0018,
        "meta_ra_of_asc_node": 75.2746,
        "meta_arg_of_pericenter": 274.5807,
        "meta_mean_anomaly": 122.7095,
        "meta_ephemeris_type": 0,
        "meta_classification_type": "U",
        "meta_norad_cat_id": 66563,
        "meta_element_set_no": 999,
        "meta_rev_at_epoch": 592,
        "meta_bstar": 0.0025611518,
        "meta_mean_motion_dot": 0.00188613,
        "meta_mean_motion_ddot": 0,
        "tle_line1": "1 66563U 25268G   25354.58336806  .00188613  00000+0  25612-2 0  9991",
        "tle_line2": "2 66563  43.0018  75.2746 0001884 274.5807 122.7095 15.56228010  5921"
      },
      "geometry": {
        "type": "Point",
        "coordinates": [
          167.66392636465005,
          42.9253265113131
        ]
      }
    },
    {
      "type": "Feature",
      "properties": {
        "norad_id": 66564,
        "name": "STARLINK-35358",
        "group": "last-30-days",
        "lat": 42.81286688339647,
        "lon": 170.2656385073975,
        "alt_km": 392.74789127260647,
        "timestamp": "2025-12-20T18:51:30.444625+00:00",
        "meta_object_name": "STARLINK-35358",
        "meta_object_id": "2025-268H",
        "meta_epoch": "2025-12-20T14:00:03.000384",
        "meta_mean_motion": 15.56235579,
        "meta_eccentricity": 0.00017958,
        "meta_inclination": 43.0004,
        "meta_ra_of_asc_node": 75.2713,
        "meta_arg_of_pericenter": 264.5112,
        "meta_mean_anomaly": 134.6885,
        "meta_ephemeris_type": 0,
        "meta_classification_type": "U",
        "meta_norad_cat_id": 66564,
        "meta_element_set_no": 999,
        "meta_rev_at_epoch": 588,
        "meta_bstar": 0.0024674643,
        "meta_mean_motion_dot": 0.00181589,
        "meta_mean_motion_ddot": 0,
        "tle_line1": "1 66564U 25268H   25354.58336806  .00181589  00000+0  24675-2 0  9995",
        "tle_line2": "2 66564  43.0004  75.2713 0001795 264.5112 134.6885 15.56235579  5882"
      },
      "geometry": {
        "type": "Point",
        "coordinates": [
          170.2656385073975,
          42.81286688339647
        ]
      }
    },
    {
      "type": "Feature",
      "properties": {
        "norad_id": 66565,
        "name": "STARLINK-35893",
        "group": "last-30-days",
        "lat": 42.642523353514584,
        "lon": 172.86727492272485,
        "alt_km": 392.7963227362525,
        "timestamp": "2025-12-20T18:51:30.444637+00:00",
        "meta_object_name": "STARLINK-35893",
        "meta_object_id": "2025-268J",
        "meta_epoch": "2025-12-20T14:00:03.000384",
        "meta_mean_motion": 15.56228377,
        "meta_eccentricity": 0.00017995,
        "meta_inclination": 43.0011,
        "meta_ra_of_asc_node": 75.2643,
        "meta_arg_of_pericenter": 269.1129,
        "meta_mean_anomaly": 132.0112,
        "meta_ephemeris_type": 0,
        "meta_classification_type": "U",
        "meta_norad_cat_id": 66565,
        "meta_element_set_no": 999,
        "meta_rev_at_epoch": 592,
        "meta_bstar": 0.00256554,
        "meta_mean_motion_dot": 0.00188947,
        "meta_mean_motion_ddot": 0,
        "tle_line1": "1 66565U 25268J   25354.58336806  .00188947  00000+0  25655-2 0  9990",
        "tle_line2": "2 66565  43.0011  75.2643 0001799 269.1129 132.0112 15.56228377  5924"
      },
      "geometry": {
        "type": "Point",
        "coordinates": [
          172.86727492272485,
          42.642523353514584
        ]
      }
    },
    {
      "type": "Feature",
      "properties": {
        "norad_id": 66566,
        "name": "STARLINK-35871",
        "group": "last-30-days",
        "lat": 42.412574086127385,
        "lon": 175.44911191003413,
        "alt_km": 392.8000614161192,
        "timestamp": "2025-12-20T18:51:30.444648+00:00",
        "meta_object_name": "STARLINK-35871",
        "meta_object_id": "2025-268K",
        "meta_epoch": "2025-12-20T14:00:03.000384",
        "meta_mean_motion": 15.56229653,
        "meta_eccentricity": 0.00017627,
        "meta_inclination": 43.0002,
        "meta_ra_of_asc_node": 75.2624,
        "meta_arg_of_pericenter": 269.1103,
        "meta_mean_anomaly": 133.9289,
        "meta_ephemeris_type": 0,
        "meta_classification_type": "U",
        "meta_norad_cat_id": 66566,
        "meta_element_set_no": 999,
        "meta_rev_at_epoch": 592,
        "meta_bstar": 0.0025403907,
        "meta_mean_motion_dot": 0.00187055,
        "meta_mean_motion_ddot": 0,
        "tle_line1": "1 66566U 25268K   25354.58336806  .00187055  00000+0  25404-2 0  9992",
        "tle_line2": "2 66566  43.0002  75.2624 0001762 269.1103 133.9289 15.56229653  5929"
      },
      "geometry": {
        "type": "Point",
        "coordinates": [
          175.44911191003413,
          42.412574086127385
        ]
      }
    }
  ]
}